STARLETTE               
1 07646U 75010A   22229.19864858 -.00000147  00000+0 -15822-5 0  9998
2 07646  49.8213 230.4481 0205764 118.2403 243.9429 13.82313264400872
LAGEOS 1                
1 08820U 76039A   22228.78371494  .00000015  00000+0  00000+0 0  9996
2 08820 109.8522  59.6574 0045111 241.8975 356.9695  6.38664857823707
AJISAI (EGS)            
1 16908U 86061A   22228.90603116 -.00000085  00000+0  87777-4 0  9990
2 16908  50.0088 133.1552 0011184 216.0950 268.4519 12.44497032306027
COSMOS 1989 (ETALON 1)  
1 19751U 89001C   22228.72688337 -.00000016  00000+0  00000+0 0  9997
2 19751  64.3157 120.3131 0023798 213.3984  53.4153  2.13156294261510
COSMOS 2024 (ETALON 2)  
1 20026U 89039C   22228.85119816 -.00000081  00000+0  00000+0 0  9992
2 20026  65.5345 358.3384 0018522 218.5152  63.5819  2.13204326258646
LAGEOS 2                
1 22195U 92070B   22228.27749456 -.00000009  00000+0  00000+0 0  9995
2 22195  52.6606  71.9851 0138331 294.9775 261.9320  6.47293760704726
STELLA                  
1 22824U 93061B   22229.17553198 -.00000042  00000+0  20914-5 0  9990
2 22824  98.9627 251.6231 0006118 349.3801  76.3075 14.27392393505208
LARES                   
1 38077U 12006A   22228.28492046 -.00000060  00000+0 -13243-3 0  9998
2 38077  69.4923 165.1064 0011270 278.4396  81.5353 12.54931031481415
